H1 CPF 01  gfz 2022 03 02 13  5612 terrasarx 
H2 0702601  6201 31698    2022 03 02 12 59 42 2022 03 07 00 00 42   120 1 1  0 0 0
H9
10 0 59642  39582.000000  0    1569972.869  -2670207.076   6142589.862
10 0 59642  39702.000000  0    1694814.748  -3466204.201   5696644.565
10 0 59642  39822.000000  0    1776647.697  -4203481.805   5150517.556
10 0 59642  39942.000000  0    1815176.877  -4868382.521   4513777.533
10 0 59642  40062.000000  0    1811091.603  -5448508.534   3797597.538
10 0 59642  40182.000000  0    1766032.008  -5932962.889   3014561.710
10 0 59642  40302.000000  0    1682533.470  -6312562.504   2178443.465
10 0 59642  40422.000000  0    1563952.387  -6580020.370   1303961.743
10 0 59642  40542.000000  0    1414373.878  -6730093.541    406517.540
10 0 59642  40662.000000  0    1238503.019  -6759691.503   -498084.438
10 0 59642  40782.000000  0    1041541.663  -6667942.159  -1393924.935
10 0 59642  40902.000000  0     829055.260  -6456208.610  -2265260.284
10 0 59642  41022.000000  0     606833.614  -6128061.528  -3096805.229
10 0 59642  41142.000000  0     380750.113  -5689209.428  -3874005.182
10 0 59642  41262.000000  0     156620.997  -5147387.248  -4583292.319
10 0 59642  41382.000000  0     -59931.444  -4512206.682  -5212318.971
10 0 59642  41502.000000  0    -263607.958  -3794974.317  -5750165.754
10 0 59642  41622.000000  0    -449551.152  -3008480.701  -6187521.887
10 0 59642  41742.000000  0    -613451.553  -2166765.909  -6516835.244
10 0 59642  41862.000000  0    -751639.433  -1284866.361  -6732431.234
10 0 59642  41982.000000  0    -861160.857   -378548.009  -6830600.851
10 0 59642  42102.000000  0    -939836.597    535971.599  -6809657.446
10 0 59642  42222.000000  0    -986303.392   1442306.350  -6669961.421
10 0 59642  42342.000000  0   -1000037.188   2324187.630  -6413914.635
10 0 59642  42462.000000  0    -981357.814   3165749.155  -6045924.261
10 0 59642  42582.000000  0    -931415.166   3951809.117  -5572336.122
10 0 59642  42702.000000  0    -852156.804   4668143.384  -5001335.510
10 0 59642  42822.000000  0    -746277.679   5301746.372  -4342817.551
10 0 59642  42942.000000  0    -617152.811   5841074.638  -3608225.775
10 0 59642  43062.000000  0    -468753.492   6276266.704  -2810361.238
10 0 59642  43182.000000  0    -305548.610   6599335.157  -1963165.296
10 0 59642  43302.000000  0    -132393.467   6804326.011  -1081477.711
10 0 59642  43422.000000  0      45591.774   6887440.206   -180774.837
10 0 59642  43542.000000  0     223151.384   6847113.747    723107.242
10 0 59642  43662.000000  0     395027.521   6684053.549   1614259.448
10 0 59642  43782.000000  0     556093.536   6401226.201   2476989.351
10 0 59642  43902.000000  0     701483.356   6003800.637   3296105.049
10 0 59642  44022.000000  0     826714.809   5499048.630   4057189.047
10 0 59642  44142.000000  0     927805.726   4896205.890   4746857.143
10 0 59642  44262.000000  0    1001374.987   4206290.014   5352999.113
10 0 59642  44382.000000  0    1044730.099   3441887.632   5864985.914
10 0 59642  44502.000000  0    1055939.345   2616917.521   6273851.896
10 0 59642  44622.000000  0    1033884.742   1746370.453   6572446.589
10 0 59642  44742.000000  0     978296.643    846032.171   6755553.937
10 0 59642  44862.000000  0     889769.170    -67804.883   6819976.913
10 0 59642  44982.000000  0     769756.068   -978634.918   6764590.263
10 0 59642  45102.000000  0     620546.755  -1870036.885   6590360.108
10 0 59642  45222.000000  0     445222.847  -2725970.268   6300328.430
10 0 59642  45342.000000  0     247595.936  -3531065.531   5899563.026
10 0 59642  45462.000000  0      32128.218  -4270901.125   5395071.379
10 0 59642  45582.000000  0    -196162.346  -4932263.834   4795684.827
10 0 59642  45702.000000  0    -431811.374  -5503392.003   4111912.389
10 0 59642  45822.000000  0    -669031.330  -5974195.671   3355760.669
10 0 59642  45942.000000  0    -901845.223  -6336444.550   2540524.090
10 0 59642  46062.000000  0   -1124226.324  -6583921.201   1680549.896
10 0 59642  46182.000000  0   -1330241.857  -6712537.113    790982.653
10 0 59642  46302.000000  0   -1514198.422  -6720406.257   -112510.671
10 0 59642  46422.000000  0   -1670781.800  -6607872.502  -1014025.816
10 0 59642  46542.000000  0   -1795189.251  -6377492.451  -1897709.856
10 0 59642  46662.000000  0   -1883251.399  -6033974.505  -2748047.517
10 0 59642  46782.000000  0   -1931540.790  -5584075.398  -3550139.727
10 0 59642  46902.000000  0   -1937463.924  -5036456.368  -4289967.710
10 0 59642  47022.000000  0   -1899334.483  -4401504.286  -4954636.269
10 0 59642  47142.000000  0   -1816426.857  -3691123.972  -5532592.690
10 0 59642  47262.000000  0   -1689009.211  -2918506.764  -6013819.295
10 0 59642  47382.000000  0   -1518355.344  -2097879.570  -6389997.407
10 0 59642  47502.000000  0   -1306735.354  -1244239.689  -6654639.525
10 0 59642  47622.000000  0   -1057386.403   -373081.880  -6803189.915
10 0 59642  47742.000000  0    -774463.927    499878.704  -6833094.213
10 0 59642  47862.000000  0    -462972.811   1358983.066  -6743837.993
10 0 59642  47982.000000  0    -128681.143   2188901.847  -6536954.414
10 0 59642  48102.000000  0     221982.529   2974902.094  -6216001.947
10 0 59642  48222.000000  0     582049.446   3703105.843  -5786511.178
10 0 59642  48342.000000  0     944144.971   4360734.128  -5255898.032
10 0 59642  48462.000000  0    1300634.474   4936333.377  -4633347.442
10 0 59642  48582.000000  0    1643779.813   5419981.970  -3929665.644
10 0 59642  48702.000000  0    1965902.901   5803470.156  -3157101.439
10 0 59642  48822.000000  0    2259552.686   6080450.210  -2329140.231
10 0 59642  48942.000000  0    2517672.507   6246553.691  -1460272.171
10 0 59642  49062.000000  0    2733763.312   6299471.085   -565737.364
10 0 59642  49182.000000  0    2902038.222   6238990.125    338746.374
10 0 59642  49302.000000  0    3017564.382   6066991.798   1237266.305
10 0 59642  49422.000000  0    3076388.568   5787405.136   2114002.411
10 0 59642  49542.000000  0    3075643.204   5406120.933   2953514.360
10 0 59642  49662.000000  0    3013630.377   4930866.026   3741021.270
10 0 59642  49782.000000  0    2889882.085   4371042.179   4462667.909
10 0 59642  49902.000000  0    2705192.767   3737532.577   5105773.752
10 0 59642  50022.000000  0    2461623.828   3042480.219   5659054.517
10 0 59642  50142.000000  0    2162484.527   2299048.580   6112815.161
10 0 59642  50262.000000  0    1812287.673   1521167.546   6459115.788
10 0 59642  50382.000000  0    1416679.535    723267.526   6691904.861
10 0 59642  50502.000000  0     982346.838    -79989.616   6807117.512
10 0 59642  50622.000000  0     516903.223   -873978.482   6802742.824
10 0 59642  50742.000000  0      28755.527  -1644376.780   6678857.834
10 0 59642  50862.000000  0    -473048.249  -2377423.501   6437625.857
10 0 59642  50982.000000  0    -978986.334  -3060165.215   6083260.140
10 0 59642  51102.000000  0   -1479241.411  -3680685.370   5621953.042
10 0 59642  51222.000000  0   -1963888.879  -4228314.367   5061775.094
10 0 59642  51342.000000  0   -2423094.372  -4693818.872   4412542.051
10 0 59642  51462.000000  0   -2847315.668  -5069565.591   3685648.421
10 0 59642  51582.000000  0   -3227502.679  -5349654.377   2893868.970
10 0 59642  51702.000000  0   -3555290.456  -5530016.582   2051133.383
10 0 59642  51822.000000  0   -3823182.196  -5608478.257   1172278.664
10 0 59642  51942.000000  0   -4024717.923  -5584785.662    272782.370
10 0 59642  52062.000000  0   -4154624.002  -5460591.995   -631517.334
10 0 59642  52182.000000  0   -4208939.665  -5239405.705  -1524709.750
10 0 59642  52302.000000  0   -4185116.532  -4926500.352  -2391100.981
10 0 59642  52422.000000  0   -4082088.827  -4528788.957  -3215496.931
10 0 59642  52542.000000  0   -3900312.668  -4054667.247  -3983473.604
10 0 59642  52662.000000  0   -3641774.431  -3513830.909  -4681629.246
10 0 59642  52782.000000  0   -3309968.983  -2917071.602  -5297814.667
10 0 59642  52902.000000  0   -2909848.407  -2276056.306  -5821337.452
10 0 59642  53022.000000  0   -2447743.542  -1603096.181  -6243137.810
10 0 59642  53142.000000  0   -1931259.390   -910908.824  -6555935.057
10 0 59642  53262.000000  0   -1369146.636   -212378.857  -6754341.379
10 0 59642  53382.000000  0    -771153.676    479677.757  -6834943.319
10 0 59642  53502.000000  0    -147860.551   1152742.668  -6796354.251
10 0 59642  53622.000000  0     489503.653   1794815.689  -6639235.293
10 0 59642  53742.000000  0    1129257.203   2394623.323  -6366287.283
10 0 59642  53862.000000  0    1759476.060   2941814.063  -5982209.956
10 0 59642  53982.000000  0    2368211.682   3427136.443  -5493629.044
10 0 59642  54102.000000  0    2943714.677   3842596.237  -4908992.158
10 0 59642  54222.000000  0    3474660.399   4181592.348  -4238434.731
10 0 59642  54342.000000  0    3950373.435   4439028.204  -3493614.947
10 0 59642  54462.000000  0    4361045.948   4611395.151  -2687519.009
10 0 59642  54582.000000  0    4697943.781   4696824.946  -1834238.709
10 0 59642  54702.000000  0    4953596.315   4695110.855   -948726.919
10 0 59642  54822.000000  0    5121964.988   4607694.919    -46532.029
10 0 59642  54942.000000  0    5198583.341   4437621.758    856480.712
10 0 59642  55062.000000  0    5180667.879   4189460.832   1744414.887
10 0 59642  55182.000000  0    5067197.142   3869197.532   2601631.550
10 0 59642  55302.000000  0    4858953.562   3484094.724   3413034.322
10 0 59642  55422.000000  0    4558527.305   3042529.726   4164342.257
10 0 59642  55542.000000  0    4170284.027   2553810.779   4842344.934
10 0 59642  55662.000000  0    3700298.365   2027978.919   5435136.123
10 0 59642  55782.000000  0    3156250.719   1475599.154   5932321.990
10 0 59642  55902.000000  0    2547295.062    907545.207   6325198.125
10 0 59642  56022.000000  0    1883899.661    334783.858   6606894.456
99
